[{"OBJECT_NAME":"WSF-M","OBJECT_ID":"2024-070A","EPOCH":"2026-03-09T22:09:23.192640","MEAN_MOTION":14.20717963,"ECCENTRICITY":0.00037513,"INCLINATION":98.7203,"RA_OF_ASC_NODE":78.2024,"ARG_OF_PERICENTER":243.7691,"MEAN_ANOMALY":116.31,"EPHEMERIS_TYPE":0,"CLASSIFICATION_TYPE":"U","NORAD_CAT_ID":59481,"ELEMENT_SET_NO":999,"REV_AT_EPOCH":9900,"BSTAR":5.7491191e-5,"MEAN_MOTION_DOT":8.0e-7,"MEAN_MOTION_DDOT":0},{"OBJECT_NAME":"FENGYUN 1C DEB","OBJECT_ID":"1999-025DTY","EPOCH":"2026-03-07T06:51:12.680352","MEAN_MOTION":14.2979895,"ECCENTRICITY":0.0091941,"INCLINATION":98.2849,"RA_OF_ASC_NODE":88.3629,"ARG_OF_PERICENTER":175.876,"MEAN_ANOMALY":184.3202,"EPHEMERIS_TYPE":0,"CLASSIFICATION_TYPE":"U","NORAD_CAT_ID":36199,"ELEMENT_SET_NO":999,"REV_AT_EPOCH":66188,"BSTAR":0.00030676,"MEAN_MOTION_DOT":7.84e-6,"MEAN_MOTION_DDOT":0}]
